<?xml version="1.0" encoding="UTF-8"?>
<ndm xmlns:xsi="http://www.w3.org/2001/XMLSchema-instance" xsi:noNamespaceSchemaLocation="https://sanaregistry.org/r/ndmxml_unqualified/ndmxml-2.0.0-master-2.0.xsd">
<omm id="CCSDS_OMM_VERS" version="2.0">
<header><CREATION_DATE/><ORIGINATOR/></header><body><segment><metadata><OBJECT_NAME>ONEWEB-0685</OBJECT_NAME><OBJECT_ID>2022-166AP</OBJECT_ID><CENTER_NAME>EARTH</CENTER_NAME><REF_FRAME>TEME</REF_FRAME><TIME_SYSTEM>UTC</TIME_SYSTEM><MEAN_ELEMENT_THEORY>SGP4</MEAN_ELEMENT_THEORY></metadata><data><meanElements><EPOCH>2025-11-25T09:26:20.179968</EPOCH><MEAN_MOTION>13.21833688</MEAN_MOTION><ECCENTRICITY>.000172</ECCENTRICITY><INCLINATION>87.9198</INCLINATION><RA_OF_ASC_NODE>284.6394</RA_OF_ASC_NODE><ARG_OF_PERICENTER>89.5726</ARG_OF_PERICENTER><MEAN_ANOMALY>270.5605</MEAN_ANOMALY></meanElements><tleParameters><EPHEMERIS_TYPE>0</EPHEMERIS_TYPE><CLASSIFICATION_TYPE>U</CLASSIFICATION_TYPE><NORAD_CAT_ID>54679</NORAD_CAT_ID><ELEMENT_SET_NO>999</ELEMENT_SET_NO><REV_AT_EPOCH>14449</REV_AT_EPOCH><BSTAR>.32518E-4</BSTAR><MEAN_MOTION_DOT>.26E-6</MEAN_MOTION_DOT><MEAN_MOTION_DDOT>0</MEAN_MOTION_DDOT></tleParameters></data></segment></body></omm>
<omm id="CCSDS_OMM_VERS" version="2.0">
<header><CREATION_DATE/><ORIGINATOR/></header><body><segment><metadata><OBJECT_NAME>ONEWEB-0712</OBJECT_NAME><OBJECT_ID>2022-166AQ</OBJECT_ID><CENTER_NAME>EARTH</CENTER_NAME><REF_FRAME>TEME</REF_FRAME><TIME_SYSTEM>UTC</TIME_SYSTEM><MEAN_ELEMENT_THEORY>SGP4</MEAN_ELEMENT_THEORY></metadata><data><meanElements><EPOCH>2025-11-25T09:18:57.422304</EPOCH><MEAN_MOTION>13.16593579</MEAN_MOTION><ECCENTRICITY>.0002378</ECCENTRICITY><INCLINATION>87.9033</INCLINATION><RA_OF_ASC_NODE>269.3535</RA_OF_ASC_NODE><ARG_OF_PERICENTER>87.5872</ARG_OF_PERICENTER><MEAN_ANOMALY>272.5532</MEAN_ANOMALY></meanElements><tleParameters><EPHEMERIS_TYPE>0</EPHEMERIS_TYPE><CLASSIFICATION_TYPE>U</CLASSIFICATION_TYPE><NORAD_CAT_ID>54680</NORAD_CAT_ID><ELEMENT_SET_NO>999</ELEMENT_SET_NO><REV_AT_EPOCH>14524</REV_AT_EPOCH><BSTAR>.98668E-4</BSTAR><MEAN_MOTION_DOT>.51E-6</MEAN_MOTION_DOT><MEAN_MOTION_DDOT>0</MEAN_MOTION_DDOT></tleParameters></data></segment></body></omm>
<omm id="CCSDS_OMM_VERS" version="2.0">
<header><CREATION_DATE/><ORIGINATOR/></header><body><segment><metadata><OBJECT_NAME>ONEWEB-0714</OBJECT_NAME><OBJECT_ID>2022-166AR</OBJECT_ID><CENTER_NAME>EARTH</CENTER_NAME><REF_FRAME>TEME</REF_FRAME><TIME_SYSTEM>UTC</TIME_SYSTEM><MEAN_ELEMENT_THEORY>SGP4</MEAN_ELEMENT_THEORY></metadata><data><meanElements><EPOCH>2025-11-25T07:45:58.677120</EPOCH><MEAN_MOTION>13.21824062</MEAN_MOTION><ECCENTRICITY>.00018945</ECCENTRICITY><INCLINATION>87.9201</INCLINATION><RA_OF_ASC_NODE>284.6473</RA_OF_ASC_NODE><ARG_OF_PERICENTER>87.3091</ARG_OF_PERICENTER><MEAN_ANOMALY>272.8260</MEAN_ANOMALY></meanElements><tleParameters><EPHEMERIS_TYPE>0</EPHEMERIS_TYPE><CLASSIFICATION_TYPE>U</CLASSIFICATION_TYPE><NORAD_CAT_ID>54681</NORAD_CAT_ID><ELEMENT_SET_NO>999</ELEMENT_SET_NO><REV_AT_EPOCH>14460</REV_AT_EPOCH><BSTAR>.40396593E-4</BSTAR><MEAN_MOTION_DOT>.3E-6</MEAN_MOTION_DOT><MEAN_MOTION_DDOT>0</MEAN_MOTION_DDOT></tleParameters></data></segment></body></omm>
<omm id="CCSDS_OMM_VERS" version="2.0">
<header><CREATION_DATE/><ORIGINATOR/></header><body><segment><metadata><OBJECT_NAME>ONEWEB-0532</OBJECT_NAME><OBJECT_ID>2023-004A</OBJECT_ID><CENTER_NAME>EARTH</CENTER_NAME><REF_FRAME>TEME</REF_FRAME><TIME_SYSTEM>UTC</TIME_SYSTEM><MEAN_ELEMENT_THEORY>SGP4</MEAN_ELEMENT_THEORY></metadata><data><meanElements><EPOCH>2025-11-25T10:45:47.776032</EPOCH><MEAN_MOTION>13.17648396</MEAN_MOTION><ECCENTRICITY>.0001387</ECCENTRICITY><INCLINATION>87.9137</INCLINATION><RA_OF_ASC_NODE>46.3721</RA_OF_ASC_NODE><ARG_OF_PERICENTER>104.7205</ARG_OF_PERICENTER><MEAN_ANOMALY>255.4080</MEAN_ANOMALY></meanElements><tleParameters><EPHEMERIS_TYPE>0</EPHEMERIS_TYPE><CLASSIFICATION_TYPE>U</CLASSIFICATION_TYPE><NORAD_CAT_ID>55140</NORAD_CAT_ID><ELEMENT_SET_NO>999</ELEMENT_SET_NO><REV_AT_EPOCH>14075</REV_AT_EPOCH><BSTAR>.20634E-3</BSTAR><MEAN_MOTION_DOT>.93E-6</MEAN_MOTION_DOT><MEAN_MOTION_DDOT>0</MEAN_MOTION_DDOT></tleParameters></data></segment></body></omm>
<omm id="CCSDS_OMM_VERS" version="2.0">
<header><CREATION_DATE/><ORIGINATOR/></header><body><segment><metadata><OBJECT_NAME>ONEWEB-0533</OBJECT_NAME><OBJECT_ID>2023-004B</OBJECT_ID><CENTER_NAME>EARTH</CENTER_NAME><REF_FRAME>TEME</REF_FRAME><TIME_SYSTEM>UTC</TIME_SYSTEM><MEAN_ELEMENT_THEORY>SGP4</MEAN_ELEMENT_THEORY></metadata><data><meanElements><EPOCH>2025-11-25T10:43:21.746208</EPOCH><MEAN_MOTION>13.12443051</MEAN_MOTION><ECCENTRICITY>.0001874</ECCENTRICITY><INCLINATION>87.8959</INCLINATION><RA_OF_ASC_NODE>31.1391</RA_OF_ASC_NODE><ARG_OF_PERICENTER>106.3806</ARG_OF_PERICENTER><MEAN_ANOMALY>253.7529</MEAN_ANOMALY></meanElements><tleParameters><EPHEMERIS_TYPE>0</EPHEMERIS_TYPE><CLASSIFICATION_TYPE>U</CLASSIFICATION_TYPE><NORAD_CAT_ID>55141</NORAD_CAT_ID><ELEMENT_SET_NO>999</ELEMENT_SET_NO><REV_AT_EPOCH>14133</REV_AT_EPOCH><BSTAR>-.61208E-3</BSTAR><MEAN_MOTION_DOT>-.207E-5</MEAN_MOTION_DOT><MEAN_MOTION_DDOT>0</MEAN_MOTION_DDOT></tleParameters></data></segment></body></omm>
<omm id="CCSDS_OMM_VERS" version="2.0">
<header><CREATION_DATE/><ORIGINATOR/></header><body><segment><metadata><OBJECT_NAME>ONEWEB-0541</OBJECT_NAME><OBJECT_ID>2023-004C</OBJECT_ID><CENTER_NAME>EARTH</CENTER_NAME><REF_FRAME>TEME</REF_FRAME><TIME_SYSTEM>UTC</TIME_SYSTEM><MEAN_ELEMENT_THEORY>SGP4</MEAN_ELEMENT_THEORY></metadata><data><meanElements><EPOCH>2025-11-25T05:47:05.343648</EPOCH><MEAN_MOTION>13.11418657</MEAN_MOTION><ECCENTRICITY>.00016552</ECCENTRICITY><INCLINATION>87.8865</INCLINATION><RA_OF_ASC_NODE>61.6604</RA_OF_ASC_NODE><ARG_OF_PERICENTER>99.5140</ARG_OF_PERICENTER><MEAN_ANOMALY>260.6175</MEAN_ANOMALY></meanElements><tleParameters><EPHEMERIS_TYPE>0</EPHEMERIS_TYPE><CLASSIFICATION_TYPE>U</CLASSIFICATION_TYPE><NORAD_CAT_ID>55142</NORAD_CAT_ID><ELEMENT_SET_NO>999</ELEMENT_SET_NO><REV_AT_EPOCH>13921</REV_AT_EPOCH><BSTAR>.12859664E-2</BSTAR><MEAN_MOTION_DOT>.468E-5</MEAN_MOTION_DOT><MEAN_MOTION_DDOT>0</MEAN_MOTION_DDOT></tleParameters></data></segment></body></omm>
<omm id="CCSDS_OMM_VERS" version="2.0">
<header><CREATION_DATE/><ORIGINATOR/></header><body><segment><metadata><OBJECT_NAME>ONEWEB-0543</OBJECT_NAME><OBJECT_ID>2023-004D</OBJECT_ID><CENTER_NAME>EARTH</CENTER_NAME><REF_FRAME>TEME</REF_FRAME><TIME_SYSTEM>UTC</TIME_SYSTEM><MEAN_ELEMENT_THEORY>SGP4</MEAN_ELEMENT_THEORY></metadata><data><meanElements><EPOCH>2025-11-25T10:26:59.227008</EPOCH><MEAN_MOTION>13.18684372</MEAN_MOTION><ECCENTRICITY>.0002132</ECCENTRICITY><INCLINATION>87.9183</INCLINATION><RA_OF_ASC_NODE>15.9677</RA_OF_ASC_NODE><ARG_OF_PERICENTER>99.4936</ARG_OF_PERICENTER><MEAN_ANOMALY>260.6438</MEAN_ANOMALY></meanElements><tleParameters><EPHEMERIS_TYPE>0</EPHEMERIS_TYPE><CLASSIFICATION_TYPE>U</CLASSIFICATION_TYPE><NORAD_CAT_ID>55143</NORAD_CAT_ID><ELEMENT_SET_NO>999</ELEMENT_SET_NO><REV_AT_EPOCH>14284</REV_AT_EPOCH><BSTAR>.28566E-4</BSTAR><MEAN_MOTION_DOT>.24E-6</MEAN_MOTION_DOT><MEAN_MOTION_DDOT>0</MEAN_MOTION_DDOT></tleParameters></data></segment></body></omm>
<omm id="CCSDS_OMM_VERS" version="2.0">
<header><CREATION_DATE/><ORIGINATOR/></header><body><segment><metadata><OBJECT_NAME>ONEWEB-0544</OBJECT_NAME><OBJECT_ID>2023-004E</OBJECT_ID><CENTER_NAME>EARTH</CENTER_NAME><REF_FRAME>TEME</REF_FRAME><TIME_SYSTEM>UTC</TIME_SYSTEM><MEAN_ELEMENT_THEORY>SGP4</MEAN_ELEMENT_THEORY></metadata><data><meanElements><EPOCH>2025-11-25T10:17:30.473088</EPOCH><MEAN_MOTION>13.18686802</MEAN_MOTION><ECCENTRICITY>.0001975</ECCENTRICITY><INCLINATION>87.9186</INCLINATION><RA_OF_ASC_NODE>15.9587</RA_OF_ASC_NODE><ARG_OF_PERICENTER>91.5920</ARG_OF_PERICENTER><MEAN_ANOMALY>268.5439</MEAN_ANOMALY></meanElements><tleParameters><EPHEMERIS_TYPE>0</EPHEMERIS_TYPE><CLASSIFICATION_TYPE>U</CLASSIFICATION_TYPE><NORAD_CAT_ID>55144</NORAD_CAT_ID><ELEMENT_SET_NO>999</ELEMENT_SET_NO><REV_AT_EPOCH>14284</REV_AT_EPOCH><BSTAR>.10591E-3</BSTAR><MEAN_MOTION_DOT>.55E-6</MEAN_MOTION_DOT><MEAN_MOTION_DDOT>0</MEAN_MOTION_DDOT></tleParameters></data></segment></body></omm>

</ndm>
