ONEWEB-0685             
1 54679U 22166AP  25329.39328912  .00000026  00000+0  32518-4 0  9996
2 54679  87.9198 284.6394 0001720  89.5726 270.5605 13.21833688144498
ONEWEB-0712             
1 54680U 22166AQ  25329.38816461  .00000051  00000+0  98668-4 0  9994
2 54680  87.9033 269.3535 0002378  87.5872 272.5532 13.16593579145246
ONEWEB-0714             
1 54681U 22166AR  25329.32359580  .00000030  00000+0  40397-4 0  9996
2 54681  87.9201 284.6473 0001894  87.3091 272.8260 13.21824062144608
ONEWEB-0532             
1 55140U 23004A   25329.44846963  .00000093  00000+0  20634-3 0  9998
2 55140  87.9137  46.3721 0001387 104.7205 255.4080 13.17648396140752
ONEWEB-0533             
1 55141U 23004B   25329.44677947 -.00000207  00000+0 -61208-3 0  9994
2 55141  87.8959  31.1391 0001874 106.3806 253.7529 13.12443051141335
ONEWEB-0541             
1 55142U 23004C   25329.24103407  .00000468  00000+0  12860-2 0  9994
2 55142  87.8865  61.6604 0001655  99.5140 260.6175 13.11418657139219
ONEWEB-0543             
1 55143U 23004D   25329.43540772  .00000024  00000+0  28566-4 0  9996
2 55143  87.9183  15.9677 0002132  99.4936 260.6438 13.18684372142840
ONEWEB-0544             
1 55144U 23004E   25329.42882492  .00000055  00000+0  10591-3 0  9996
2 55144  87.9186  15.9587 0001975  91.5920 268.5439 13.18686802142842
